NORAD_CAT_ID,OBJECT_NAME,OBJECT_TYPE,EPOCH,MEAN_MOTION,ECCENTRICITY,INCLINATION,RA_OF_ASC_NODE,ARG_OF_PERICENTER,MEAN_ANOMALY,BSTAR,MEAN_MOTION_DOT,MEAN_MOTION_DDOT,TLE_LINE0,TLE_LINE1,TLE_LINE2,SEMIMAJOR_AXIS,PERIOD,APOGEE,PERIGEE,DECAYED
53410.0,STARLINK-4492,PAYLOAD,2024-05-18 21:24:51,15.08888121,0.0001522,53.2161,196.0661,93.6773,266.4393,0.0013718,0.0002164,0.0,0 STARLINK-4492,1 53410U 22097Y   24139.89226789  .00021640  00000-0  13718-2 0  9998,2 53410  53.2161 196.0661 0001522  93.6773 266.4393 15.08888121 99044,6917.733,95.435,540.651,538.545,0.0
53410.0,STARLINK-4492,PAYLOAD,2024-05-19 10:07:58,15.0880069,0.0001603,53.2165,193.688,109.3273,250.7892,0.00068524,0.00010623,0.0,0 STARLINK-4492,1 53410U 22097Y   24140.42220296  .00010623  00000-0  68524-3 0  9991,2 53410  53.2165 193.6880 0001603 109.3273 250.7892 15.08800690 99128,6918.001,95.44,540.975,538.757,0.0
53410.0,STARLINK-4492,PAYLOAD,2024-05-20 09:58:45,15.08860737,0.0001573,53.2166,189.2282,107.2754,252.841,0.0016117,0.0002547,0.0,0 STARLINK-4492,1 53410U 22097Y   24141.41580585  .00025470  00000-0  16117-2 0  9997,2 53410  53.2166 189.2282 0001573 107.2754 252.8410 15.08860737 98781,6917.817,95.436,540.77,538.594,0.0
53410.0,STARLINK-4492,PAYLOAD,2024-05-21 03:27:59,15.08862269,0.0001929,53.2171,185.9554,109.8499,250.2701,0.00071252,0.00011077,0.0,0 STARLINK-4492,1 53410U 22097Y   24142.14443909  .00011077  00000-0  71252-3 0  9996,2 53410  53.2171 185.9554 0001929 109.8499 250.2701 15.08862269 98890,6917.812,95.436,541.012,538.343,0.0
53410.0,STARLINK-4492,PAYLOAD,2024-05-21 08:14:09,15.08850303,0.0001884,53.2166,185.0631,117.6812,242.4371,0.00018365,2.637e-05,0.0,0 STARLINK-4492,1 53410U 22097Y   24142.34315987  .00002637  00000-0  18365-3 0  9990,2 53410  53.2166 185.0631 0001884 117.6812 242.4371 15.08850303 98923,6917.849,95.437,541.017,538.411,0.0
53410.0,STARLINK-4492,PAYLOAD,2024-05-22 03:18:46,15.08844115,0.0001489,53.216,181.4972,105.083,255.0327,-4.4017e-05,-9.89e-06,0.0,0 STARLINK-4492,1 53410U 22097Y   24143.13803967 -.00000989  00000-0 -44017-4 0  9992,2 53410  53.2160 181.4972 0001489 105.0830 255.0327 15.08844115 99046,6917.868,95.437,540.763,538.703,0.0
53410.0,STARLINK-4492,PAYLOAD,2024-05-22 08:04:56,15.08842631,0.000147,53.2159,180.6047,105.4188,254.6966,-5.9948e-05,-1.242e-05,0.0,0 STARLINK-4492,1 53410U 22097Y   24143.33676040 -.00001242  00000-0 -59948-4 0  9996,2 53410  53.2159 180.6047 0001470 105.4188 254.6966 15.08842631 99560,6917.872,95.437,540.754,538.72,0.0
53410.0,STARLINK-4492,PAYLOAD,2024-05-23 11:06:30,15.08835044,0.0001314,53.2165,175.5496,96.9254,263.1887,4.9852e-05,5.05e-06,0.0,0 STARLINK-4492,1 53410U 22097Y   24144.46284760  .00000505  00000-0  49852-4 0  9997,2 53410  53.2165 175.5496 0001314  96.9254 263.1887 15.08835044 99245,6917.896,95.438,540.67,538.852,0.0
53410.0,STARLINK-4492,PAYLOAD,2024-05-24 10:57:16,15.08847959,0.0001298,53.2162,171.0886,92.8101,267.3039,0.00015763,2.222e-05,0.0,0 STARLINK-4492,1 53410U 22097Y   24145.45643670  .00002222  00000-0  15763-3 0  9997,2 53410  53.2162 171.0886 0001298  92.8101 267.3039 15.08847959 99392,6917.856,95.437,540.619,538.823,0.0
53410.0,STARLINK-4492,PAYLOAD,2024-05-24 18:54:11,15.08848825,0.0001111,53.2156,169.6014,88.352,271.7599,0.00015684,2.21e-05,0.0,0 STARLINK-4492,1 53410U 22097Y   24145.78763354  .00002210  00000-0  15684-3 0  9994,2 53410  53.2156 169.6014 0001111  88.3520 271.7599 15.08848825 99933,6917.853,95.437,540.487,538.95,0.0
53410.0,STARLINK-4492,PAYLOAD,2024-05-25 01:15:44,15.08836257,0.000112,53.2161,168.4113,87.141,272.971,6.8965e-05,8.1e-06,0.0,0 STARLINK-4492,1 53410U 22097Y   24146.05260338  .00000810  00000-0  68965-4 0  9994,2 53410  53.2161 168.4113 0001120  87.1410 272.9710 15.08836257 99485,6917.892,95.438,540.532,538.982,0.0
53410.0,STARLINK-4492,PAYLOAD,2024-05-25 10:48:02,15.08849568,0.0001249,53.2162,166.6275,88.025,272.0885,0.00016043,2.267e-05,0.0,0 STARLINK-4492,1 53410U 22097Y   24146.45003121  .00002267  00000-0  16043-3 0  9990,2 53410  53.2162 166.6275 0001249  88.0250 272.0885 15.08849568 99549,6917.851,95.437,540.58,538.852,0.0
53410.0,STARLINK-4492,PAYLOAD,2024-05-26 10:38:50,15.088335,0.0001004,53.2162,162.1677,78.0731,282.0373,-2.8542e-05,-7.42e-06,0.0,0 STARLINK-4492,1 53410U 22097Y   24147.44364429 -.00000742  00000-0 -28542-4 0  9997,2 53410  53.2162 162.1677 0001004  78.0731 282.0373 15.08833500 99696,6917.9,95.438,540.46,539.071,0.0
53410.0,STARLINK-4492,PAYLOAD,2024-05-26 18:35:45,15.08856379,0.0001599,53.217,160.6822,66.3807,293.7353,6.3791e-05,7.28e-06,0.0,0 STARLINK-4492,1 53410U 22097Y   24147.77482640  .00000728  00000-0  63791-4 0  9996,2 53410  53.2170 160.6822 0001599  66.3807 293.7353 15.08856379 99745,6917.83,95.437,540.801,538.589,0.0
53410.0,STARLINK-4492,PAYLOAD,2024-05-27 04:08:04,15.0883585,0.0001246,53.2172,158.8976,77.3033,282.8099,4.3922e-05,4.11e-06,0.0,0 STARLINK-4492,1 53410U 22097Y   24148.17227880  .00000411  00000-0  43922-4 0  9997,2 53410  53.2172 158.8976 0001246  77.3033 282.8099 15.08835850 99802,6917.893,95.438,540.62,538.896,0.0
53410.0,STARLINK-4492,PAYLOAD,2024-05-27 07:18:50,15.08845059,0.0001489,53.2167,158.307,68.7079,291.4072,8.0456e-05,9.93e-06,0.0,0 STARLINK-4492,1 53410U 22097Y   24148.30475263  .00000993  00000-0  80456-4 0  9990,2 53410  53.2167 158.3070 0001489  68.7079 291.4072 15.08845059 99820,6917.865,95.437,540.76,538.7,0.0
53410.0,STARLINK-4492,PAYLOAD,2024-05-28 05:34:15,15.0882478,0.0001394,53.2172,154.1474,101.0212,259.0937,0.00013665,1.887e-05,0.0,0 STARLINK-4492,1 53410U 22097Y   24149.23212351  .00001887  00000-0  13665-3 0  9990,2 53410  53.2172 154.1474 0001394 101.0212 259.0937 15.08824780 99966,6917.927,95.439,540.756,538.828,0.0
53410.0,STARLINK-4492,PAYLOAD,2024-05-28 07:09:38,15.08824573,0.0001352,53.2172,153.8501,101.5125,258.6019,0.00013742,1.899e-05,0.0,0 STARLINK-4492,1 53410U 22097Y   24149.29836391  .00001899  00000-0  13742-3 0  9991,2 53410  53.2172 153.8501 0001352 101.5125 258.6019 15.08824573100469,6917.928,95.439,540.728,538.857,0.0
53410.0,STARLINK-4492,PAYLOAD,2024-05-29 07:00:25,15.08832641,0.0001426,53.2167,149.3842,103.2033,256.9119,5.1432e-06,-2.06e-06,0.0,0 STARLINK-4492,1 53410U 22097Y   24150.29196611 -.00000206  00000-0  51432-5 0  9999,2 53410  53.2167 149.3842 0001426 103.2033 256.9119 15.08832641100120,6917.903,95.438,540.754,538.781,0.0
53410.0,STARLINK-4492,PAYLOAD,2024-05-30 10:01:59,15.08835993,0.0001331,53.2163,144.3265,95.3754,264.739,0.00010232,1.341e-05,0.0,0 STARLINK-4492,1 53410U 22097Y   24151.41804648  .00001341  00000-0  10232-3 0  9991,2 53410  53.2163 144.3265 0001331  95.3754 264.7390 15.08835993100295,6917.893,95.438,540.678,538.837,0.0
53410.0,STARLINK-4492,PAYLOAD,2024-05-31 08:17:23,15.08839981,0.0001354,53.2167,140.1625,91.7354,268.3793,9.7861e-05,1.27e-05,0.0,0 STARLINK-4492,1 53410U 22097Y   24152.34540735  .00001270  00000-0  97861-4 0  9993,2 53410  53.2167 140.1625 0001354  91.7354 268.3793 15.08839981100922,6917.88,95.438,540.682,538.809,0.0
53410.0,STARLINK-4492,PAYLOAD,2024-06-01 04:57:24,15.08841071,0.0001553,53.2181,136.2977,85.6371,274.4798,4.7695e-05,4.71e-06,0.0,0 STARLINK-4492,1 53410U 22097Y   24153.20652833  .00000471  00000-0  47695-4 0  9994,2 53410  53.2181 136.2977 0001553  85.6371 274.4798 15.08841071100562,6917.877,95.437,540.816,538.668,0.0
53410.0,STARLINK-4492,PAYLOAD,2024-06-01 08:08:10,15.08842297,0.0001527,53.2179,135.703,85.1012,275.0155,5.3436e-05,5.63e-06,0.0,0 STARLINK-4492,1 53410U 22097Y   24153.33900717  .00000563  00000-0  53436-4 0  9997,2 53410  53.2179 135.7030 0001527  85.1012 275.0155 15.08842297101073,6917.873,95.437,540.795,538.682,0.0
53410.0,STARLINK-4492,PAYLOAD,2024-06-02 04:48:11,15.0883554,0.0001397,53.217,131.8363,94.7602,265.3549,-1.5546e-05,-5.35e-06,0.0,0 STARLINK-4492,1 53410U 22097Y   24154.20013288 -.00000535  00000-0 -15546-4 0  9993,2 53410  53.2170 131.8363 0001397  94.7602 265.3549 15.08835540100718,6917.894,95.438,540.725,538.793,0.0
53410.0,STARLINK-4492,PAYLOAD,2024-06-03 04:38:58,15.08842109,0.0001431,53.2176,127.3746,100.9941,259.1212,5.1223e-05,5.27e-06,0.0,0 STARLINK-4492,1 53410U 22097Y   24155.19372757  .00000527  00000-0  51223-4 0  9992,2 53410  53.2176 127.3746 0001431 100.9941 259.1212 15.08842109100867,6917.874,95.437,540.729,538.749,0.0
53410.0,STARLINK-4492,PAYLOAD,2024-06-03 07:49:44,15.08842423,0.000143,53.2176,126.7799,100.9508,259.1645,5.296e-05,5.55e-06,0.0,0 STARLINK-4492,1 53410U 22097Y   24155.32620724  .00000555  00000-0  52960-4 0  9997,2 53410  53.2176 126.7799 0001430 100.9508 259.1645 15.08842423101372,6917.873,95.437,540.727,538.749,0.0
53410.0,STARLINK-4492,PAYLOAD,2024-06-03 22:08:12,15.08839614,0.0001374,53.2174,124.1037,99.7539,260.3609,0.00011763,1.585e-05,0.0,0 STARLINK-4492,1 53410U 22097Y   24155.92236672  .00001585  00000-0  11763-3 0  9997,2 53410  53.2174 124.1037 0001374  99.7539 260.3609 15.08839614101465,6917.882,95.438,540.697,538.796,0.0
53410.0,STARLINK-4492,PAYLOAD,2024-06-04 07:40:31,15.08841012,0.0001288,53.2171,122.3205,92.9469,267.1671,8.2574e-05,1.027e-05,0.0,0 STARLINK-4492,1 53410U 22097Y   24156.31980798  .00001027  00000-0  82574-4 0  9996,2 53410  53.2171 122.3205 0001288  92.9469 267.1671 15.08841012101032,6917.877,95.437,540.633,538.851,0.0
53410.0,STARLINK-4492,PAYLOAD,2024-06-05 13:52:50,15.08846125,0.0001341,53.2184,116.6708,94.5147,265.5999,5.8638e-05,6.46e-06,0.0,0 STARLINK-4492,1 53410U 22097Y   24157.57836449  .00000646  00000-0  58638-4 0  9998,2 53410  53.2184 116.6708 0001341  94.5147 265.5999 15.08846125101711,6917.862,95.437,540.654,538.799,0.0
53410.0,STARLINK-4492,PAYLOAD,2024-06-05 21:49:46,15.0884444,0.0002202,53.2178,115.1845,82.7849,277.3394,8.2014e-05,1.017e-05,0.0,0 STARLINK-4492,1 53410U 22097Y   24157.90956748  .00001017  00000-0  82014-4 0  9998,2 53410  53.2178 115.1845 0002202  82.7849 277.3394 15.08844440101274,6917.867,95.437,541.255,538.209,0.0
